ONEWEB-0196             
1 48218U 21031J   26165.85740169  .00000028  00000+0  40531-4 0  9996
2 48218  87.8961 290.1712 0001980 105.1372 254.9977 13.14502809247923
ONEWEB-0183             
1 48219U 21031K   26165.83202568 -.00000193  00000+0 -55556-3 0  9998
2 48219  87.8958 290.1745 0002068  97.0437 263.0928 13.14503194248011
ONEWEB-0185             
1 48220U 21031L   26165.85818575  .00000074  00000+0  16434-3 0  9991
2 48220  87.8968 290.1625 0002315 102.1624 257.9765 13.14502810247948
ONEWEB-0187             
1 48221U 21031M   26165.83823375 -.00000195  00000+0 -56164-3 0  9994
2 48221  87.8958 290.1823 0002122 104.9684 255.1680 13.14502456247953
ONEWEB-0192             
1 48222U 21031N   26165.57987569  .00000168  00000+0  41818-3 0  9990
2 48222  87.8959 290.2239 0001873 103.4112 256.7227 13.14501382247837
ONEWEB-0219             
1 48223U 21031P   26165.86372288  .00000152  00000+0  37629-3 0  9997
2 48223  87.8960 290.1594 0002172 104.2711 255.8660 13.14504740248079
ONEWEB-0202             
1 48224U 21031Q   26165.84471619 -.00000174  00000+0 -50273-3 0  9990
2 48224  87.8964 290.1758 0001782 122.0604 238.0699 13.14502730248051
ONEWEB-0204             
1 48225U 21031R   26165.57434088  .00000287  00000+0  73928-3 0  9995
2 48225  87.8965 290.2239 0002182  95.4113 264.7266 13.14502862247917
ONEWEB-0205             
1 48226U 21031S   26165.85420889  .00000024  00000+0  29813-4 0  9995
2 48226  87.8969 290.1614 0002108 106.6986 253.4375 13.14505059247961
ONEWEB-0206             
1 48227U 21031T   26165.82726572 -.00000206  00000+0 -59099-3 0  9993
2 48227  87.8967 290.1683 0001818  95.9739 264.1598 13.14503074247915
ONEWEB-0182             
1 48228U 21031U   26165.82251103 -.00000171  00000+0 -49574-3 0  9995
2 48228  87.8963 290.1769 0002084  95.6711 264.4656 13.14502426248122
ONEWEB-0186             
1 48229U 21031V   26165.83360860 -.00000218  00000+0 -62144-3 0  9998
2 48229  87.8974 290.1651 0002029 102.5512 257.5845 13.14502588248077
ONEWEB-0181             
1 48230U 21031W   26165.58305997  .00000032  00000+0  51298-4 0  9993
2 48230  87.8953 290.2449 0001976 106.7642 253.3705 13.14503060247896
ONEWEB-0188             
1 48231U 21031X   26165.84946583 -.00000076  00000+0 -23863-3 0  9991
2 48231  87.8954 290.1910 0001950 101.1963 258.9386 13.14504262247832
ONEWEB-0220             
1 48232U 21031Y   26165.81298560  .00000007  00000+0 -14868-4 0  9993
2 48232  87.8972 290.1710 0002203 104.4242 255.7132 13.14501804248091
ONEWEB-0165             
1 48233U 21031Z   26165.84153461 -.00000237  00000+0 -67355-3 0  9991
2 48233  87.8962 290.1784 0001940 112.9250 247.2085 13.14501642248051
ONEWEB-0199             
1 48234U 21031AA  26165.82568140 -.00000193  00000+0 -55601-3 0  9996
2 48234  87.8971 290.1672 0001850  94.9904 265.1436 13.14502545247953
ONEWEB-0203             
1 48235U 21031AB  26165.81617116 -.00000037  00000+0 -13343-3 0  9998
2 48235  87.8969 290.1724 0001740 102.3598 257.7727 13.14502296247964
ONEWEB-0197             
1 48236U 21031AC  26165.86677497  .00000126  00000+0  30614-3 0  9999
2 48236  87.8958 290.1488 0002178  97.7778 262.3599 13.14504068247882
ONEWEB-0194             
1 48237U 21031AD  26165.84629859 -.00000189  00000+0 -54350-3 0  9991
2 48237  87.8963 290.1748 0001717  97.7241 262.4083 13.14502290248055
ONEWEB-0193             
1 48238U 21031AE  26165.86215512  .00000096  00000+0  22571-3 0  9996
2 48238  87.8962 290.1622 0001555  92.7336 267.3971 13.14502720248009
ONEWEB-0191             
1 48239U 21031AF  26165.64490788  .00000276  00000+0  71034-3 0  9991
2 48239  87.8970 290.2038 0002056  96.2568 263.8796 13.14502927247839
ONEWEB-0195             
1 48240U 21031AG  26165.85025475 -.00000155  00000+0 -45391-3 0  9998
2 48240  87.8968 290.1638 0002019 112.0288 248.1056 13.14501769247847
ONEWEB-0201             
1 48241U 21031AH  26165.83849361 -.00000253  00000+0 -71591-3 0  9995
2 48241  87.8959 290.1824 0002230  98.7529 261.3854 13.14504372248070
ONEWEB-0207             
1 48242U 21031AJ  26165.81854580 -.00000094  00000+0 -28783-3 0  9991
2 48242  87.8969 290.1708 0002184  99.2374 260.9003 13.14502685247980
ONEWEB-0208             
1 48243U 21031AK  26165.57195941  .00000307  00000+0  79274-3 0  9990
2 48243  87.8964 290.2265 0001905 111.3140 248.8193 13.14503670247960
ONEWEB-0200             
1 48244U 21031AL  26165.83994963 -.00000241  00000+0 -68364-3 0  9998
2 48244  87.8971 290.1598 0001983 103.0782 257.0569 13.14502556247920
ONEWEB-0217             
1 48245U 21031AM  26165.85581468  .00000001  00000+0 -32901-4 0  9995
2 48245  87.8967 290.1610 0001962 110.5966 249.5374 13.14502718247879
ONEWEB-0211             
1 48767U 21045A   26165.75830352 -.00000100  00000+0 -29708-3 0  9998
2 48767  87.9006 259.5661 0001830 121.5618 238.5691 13.16196163244128
ONEWEB-0223             
1 48768U 21045B   26165.75944155  .00000442  00000+0  11389-2 0  9998
2 48768  87.9005 259.6735 0001694 109.9326 250.1987 13.15546158244080
