OBJECT_NAME,OBJECT_ID,EPOCH,MEAN_MOTION,ECCENTRICITY,INCLINATION,RA_OF_ASC_NODE,ARG_OF_PERICENTER,MEAN_ANOMALY,EPHEMERIS_TYPE,CLASSIFICATION_TYPE,NORAD_CAT_ID,ELEMENT_SET_NO,REV_AT_EPOCH,BSTAR,MEAN_MOTION_DOT,MEAN_MOTION_DDOT
ONEWEB-0196,2021-031J,2026-06-14T20:34:39.506016,13.14502809,.000198,87.8961,290.1712,105.1372,254.9977,0,U,48218,999,24792,.40531E-4,.28E-6,0
ONEWEB-0183,2021-031K,2026-06-14T19:58:07.018752,13.14503194,.0002068,87.8958,290.1745,97.0437,263.0928,0,U,48219,999,24801,-.55556E-3,-.193E-5,0
ONEWEB-0185,2021-031L,2026-06-14T20:35:47.248800,13.14502810,.0002315,87.8968,290.1625,102.1624,257.9765,0,U,48220,999,24794,.16434E-3,.74E-6,0
ONEWEB-0187,2021-031M,2026-06-14T20:07:03.396000,13.14502456,.0002122,87.8958,290.1823,104.9684,255.1680,0,U,48221,999,24795,-.56164E-3,-.195E-5,0
ONEWEB-0192,2021-031N,2026-06-14T13:55:01.259616,13.14501382,.0001873,87.8959,290.2239,103.4112,256.7227,0,U,48222,999,24783,.41818E-3,.168E-5,0
ONEWEB-0219,2021-031P,2026-06-14T20:43:45.656832,13.14504740,.0002172,87.8960,290.1594,104.2711,255.8660,0,U,48223,999,24807,.37629E-3,.152E-5,0
ONEWEB-0202,2021-031Q,2026-06-14T20:16:23.478816,13.14502730,.0001782,87.8964,290.1758,122.0604,238.0699,0,U,48224,999,24805,-.50273E-3,-.174E-5,0
ONEWEB-0204,2021-031R,2026-06-14T13:47:03.052032,13.14502862,.0002182,87.8965,290.2239,95.4113,264.7266,0,U,48225,999,24791,.73928E-3,.287E-5,0
ONEWEB-0205,2021-031S,2026-06-14T20:30:03.648096,13.14505059,.0002108,87.8969,290.1614,106.6986,253.4375,0,U,48226,999,24796,.29813E-4,.24E-6,0
ONEWEB-0206,2021-031T,2026-06-14T19:51:15.758208,13.14503074,.0001818,87.8967,290.1683,95.9739,264.1598,0,U,48227,999,24791,-.59099E-3,-.206E-5,0
ONEWEB-0182,2021-031U,2026-06-14T19:44:24.952992,13.14502426,.0002084,87.8963,290.1769,95.6711,264.4656,0,U,48228,999,24812,-.49574E-3,-.171E-5,0
ONEWEB-0186,2021-031V,2026-06-14T20:00:23.783040,13.14502588,.0002029,87.8974,290.1651,102.5512,257.5845,0,U,48229,999,24807,-.62144E-3,-.218E-5,0
ONEWEB-0181,2021-031W,2026-06-14T13:59:36.381408,13.14503060,.0001976,87.8953,290.2449,106.7642,253.3705,0,U,48230,999,24789,.51298E-4,.32E-6,0
ONEWEB-0188,2021-031X,2026-06-14T20:23:13.847712,13.14504262,.000195,87.8954,290.1910,101.1963,258.9386,0,U,48231,999,24783,-.23863E-3,-.76E-6,0
ONEWEB-0220,2021-031Y,2026-06-14T19:30:41.955840,13.14501804,.0002203,87.8972,290.1710,104.4242,255.7132,0,U,48232,999,24809,-.14868E-4,.7E-7,0
ONEWEB-0165,2021-031Z,2026-06-14T20:11:48.590304,13.14501642,.000194,87.8962,290.1784,112.9250,247.2085,0,U,48233,999,24805,-.67355E-3,-.237E-5,0
ONEWEB-0199,2021-031AA,2026-06-14T19:48:58.872960,13.14502545,.000185,87.8971,290.1672,94.9904,265.1436,0,U,48234,999,24795,-.55601E-3,-.193E-5,0
ONEWEB-0203,2021-031AB,2026-06-14T19:35:17.188224,13.14502296,.000174,87.8969,290.1724,102.3598,257.7727,0,U,48235,999,24796,-.13343E-3,-.37E-6,0
ONEWEB-0197,2021-031AC,2026-06-14T20:48:09.357408,13.14504068,.0002178,87.8958,290.1488,97.7778,262.3599,0,U,48236,999,24788,.30614E-3,.126E-5,0
ONEWEB-0194,2021-031AD,2026-06-14T20:18:40.198176,13.14502290,.0001717,87.8963,290.1748,97.7241,262.4083,0,U,48237,999,24805,-.5435E-3,-.189E-5,0
ONEWEB-0193,2021-031AE,2026-06-14T20:41:30.202368,13.14502720,.0001555,87.8962,290.1622,92.7336,267.3971,0,U,48238,999,24800,.22571E-3,.96E-6,0
ONEWEB-0191,2021-031AF,2026-06-14T15:28:40.040832,13.14502927,.0002056,87.8970,290.2038,96.2568,263.8796,0,U,48239,999,24783,.71034E-3,.276E-5,0
ONEWEB-0195,2021-031AG,2026-06-14T20:24:22.010400,13.14501769,.0002019,87.8968,290.1638,112.0288,248.1056,0,U,48240,999,24784,-.45391E-3,-.155E-5,0
ONEWEB-0201,2021-031AH,2026-06-14T20:07:25.847904,13.14504372,.000223,87.8959,290.1824,98.7529,261.3854,0,U,48241,999,24807,-.71591E-3,-.253E-5,0
ONEWEB-0207,2021-031AJ,2026-06-14T19:38:42.357120,13.14502685,.0002184,87.8969,290.1708,99.2374,260.9003,0,U,48242,999,24798,-.28783E-3,-.94E-6,0
ONEWEB-0208,2021-031AK,2026-06-14T13:43:37.293024,13.14503670,.0001905,87.8964,290.2265,111.3140,248.8193,0,U,48243,999,24796,.79274E-3,.307E-5,0
ONEWEB-0200,2021-031AL,2026-06-14T20:09:31.648032,13.14502556,.0001983,87.8971,290.1598,103.0782,257.0569,0,U,48244,999,24792,-.68364E-3,-.241E-5,0
ONEWEB-0217,2021-031AM,2026-06-14T20:32:22.388352,13.14502718,.0001962,87.8967,290.1610,110.5966,249.5374,0,U,48245,999,24787,-.32901E-4,.1E-7,0
ONEWEB-0211,2021-045A,2026-06-14T18:11:57.424128,13.16196163,.000183,87.9006,259.5661,121.5618,238.5691,0,U,48767,999,24412,-.29708E-3,-.1E-5,0
ONEWEB-0223,2021-045B,2026-06-14T18:13:35.749920,13.15546158,.0001694,87.9005,259.6735,109.9326,250.1987,0,U,48768,999,24408,.11389E-2,.442E-5,0
